NORAD_CAT_ID,OBJECT_NAME,OBJECT_TYPE,EPOCH,MEAN_MOTION,ECCENTRICITY,INCLINATION,RA_OF_ASC_NODE,ARG_OF_PERICENTER,MEAN_ANOMALY,BSTAR,MEAN_MOTION_DOT,MEAN_MOTION_DDOT,TLE_LINE0,TLE_LINE1,TLE_LINE2,SEMIMAJOR_AXIS,PERIOD,APOGEE,PERIGEE,DECAYED
54062.0,STARLINK-5170,PAYLOAD,2023-12-02 13:14:00,15.08855947,0.0001323,53.2176,101.7465,120.5861,239.5262,0.00020594,2.993e-05,0.0,0 STARLINK-5170,1 54062U 22136M   23336.55139141  .00002993  00000-0  20594-3 0  9993,2 54062  53.2176 101.7465 0001323 120.5861 239.5262 15.08855947 61827,6917.832,95.437,540.612,538.781,0.0
54062.0,STARLINK-5170,PAYLOAD,2023-12-02 14:49:23,15.08863869,0.0001541,53.2174,101.4507,72.939,287.1771,0.0004356,6.656e-05,0.0,0 STARLINK-5170,1 54062U 22136M   23336.61763154  .00006656  00000-0  43560-3 0  9995,2 54062  53.2174 101.4507 0001541  72.9390 287.1771 15.08863869 61835,6917.807,95.436,540.738,538.606,0.0
54062.0,STARLINK-5170,PAYLOAD,2023-12-03 11:29:25,15.08821156,0.0001336,53.2176,97.5862,87.5786,272.5359,-0.00033998,-5.692e-05,0.0,0 STARLINK-5170,1 54062U 22136M   23337.47877267 -.00005692  00000-0 -33998-3 0  9996,2 54062  53.2176  97.5862 0001336  87.5786 272.5359 15.08821156 62440,6917.938,95.439,540.727,538.879,0.0
54062.0,STARLINK-5170,PAYLOAD,2023-12-03 13:04:49,15.08820339,0.0002065,53.2173,97.2887,137.2847,222.8306,-0.00028328,-4.791e-05,0.0,0 STARLINK-5170,1 54062U 22136M   23337.54501311 -.00004791  00000-0 -28328-3 0  9998,2 54062  53.2173  97.2887 0002065 137.2847 222.8306 15.08820339 61971,6917.94,95.439,541.234,538.377,0.0
54062.0,STARLINK-5170,PAYLOAD,2023-12-04 12:55:37,15.0882942,0.0001932,53.2184,92.8376,44.6831,315.4317,3.1671e-05,2.16e-06,0.0,0 STARLINK-5170,1 54062U 22136M   23338.53862449  .00000216  00000-0  31671-4 0  9992,2 54062  53.2184  92.8376 0001932  44.6831 315.4317 15.08829420 62122,6917.913,95.438,541.114,538.441,0.0
54062.0,STARLINK-5170,PAYLOAD,2023-12-04 17:41:45,15.08844161,0.0001957,53.2193,91.9304,119.8943,240.2244,-5.8169e-05,-1.214e-05,0.0,0 STARLINK-5170,1 54062U 22136M   23338.73733135 -.00001214  00000-0 -58169-4 0  9995,2 54062  53.2193  91.9304 0001957 119.8943 240.2244 15.08844161 62638,6917.868,95.437,541.086,538.379,0.0
54062.0,STARLINK-5170,PAYLOAD,2023-12-05 12:46:23,15.08836989,0.0001809,53.2185,88.3645,126.2865,233.8294,0.00048582,7.452e-05,0.0,0 STARLINK-5170,1 54062U 22136M   23339.53221368  .00007452  00000-0  48582-3 0  9999,2 54062  53.2185  88.3645 0001809 126.2865 233.8294 15.08836989 62270,6917.89,95.438,541.006,538.503,0.0
54062.0,STARLINK-5170,PAYLOAD,2023-12-06 11:01:47,15.08843518,0.0001743,53.2186,84.2054,118.2465,241.8703,0.00010331,1.357e-05,0.0,0 STARLINK-5170,1 54062U 22136M   23340.45957764  .00001357  00000-0  10331-3 0  9997,2 54062  53.2186  84.2054 0001743 118.2465 241.8703 15.08843518 62892,6917.87,95.437,540.94,538.529,0.0
54062.0,STARLINK-5170,PAYLOAD,2023-12-06 12:37:10,15.08842861,0.0001679,53.2189,83.9081,115.8477,244.2688,7.2864e-05,8.72e-06,0.0,0 STARLINK-5170,1 54062U 22136M   23340.52581785  .00000872  00000-0  72864-4 0  9992,2 54062  53.2189  83.9081 0001679 115.8477 244.2688 15.08842861 62423,6917.872,95.437,540.898,538.575,0.0
54062.0,STARLINK-5170,PAYLOAD,2023-12-07 12:27:57,15.08841493,0.0001581,53.2193,79.4498,109.2972,250.8191,-2.0632e-05,-6.16e-06,0.0,0 STARLINK-5170,1 54062U 22136M   23341.51941776 -.00000616  00000-0 -20632-4 0  9996,2 54062  53.2193  79.4498 0001581 109.2972 250.8191 15.08841493 62577,6917.876,95.437,540.835,538.647,0.0
54062.0,STARLINK-5170,PAYLOAD,2023-12-08 12:18:44,15.08839549,0.0001453,53.2194,74.9874,97.301,262.8148,6.6827e-05,7.76e-06,0.0,0 STARLINK-5170,1 54062U 22136M   23342.51301528  .00000776  00000-0  66827-4 0  9993,2 54062  53.2194  74.9874 0001453  97.3010 262.8148 15.08839549 62725,6917.882,95.438,540.752,538.742,0.0
54062.0,STARLINK-5170,PAYLOAD,2023-12-08 15:29:30,15.08841049,0.0001426,53.2192,74.3892,89.4258,270.6898,7.9047e-05,9.7e-06,0.0,0 STARLINK-5170,1 54062U 22136M   23342.64549397  .00000970  00000-0  79047-4 0  9999,2 54062  53.2192  74.3892 0001426  89.4258 270.6898 15.08841049 63226,6917.877,95.437,540.729,538.756,0.0
54062.0,STARLINK-5170,PAYLOAD,2023-12-09 12:09:31,15.08830799,0.0001485,53.2191,70.5282,87.5343,272.582,0.00019316,2.787e-05,0.0,0 STARLINK-5170,1 54062U 22136M   23343.50661801  .00002787  00000-0  19316-3 0  9990,2 54062  53.2191  70.5282 0001485  87.5343 272.5820 15.08830799 63355,6917.909,95.438,540.801,538.746,0.0
54062.0,STARLINK-5170,PAYLOAD,2023-12-10 12:00:18,15.08832148,0.0001437,53.2186,66.0682,81.6294,278.4861,0.00012139,1.644e-05,0.0,0 STARLINK-5170,1 54062U 22136M   23344.50021888  .00001644  00000-0  12139-3 0  9993,2 54062  53.2186  66.0682 0001437  81.6294 278.4861 15.08832148 63024,6917.904,95.438,540.763,538.775,0.0
54062.0,STARLINK-5170,PAYLOAD,2023-12-11 11:51:05,15.08841918,0.0001482,53.2189,61.6071,96.5774,263.5387,5.0906e-05,5.22e-06,0.0,0 STARLINK-5170,1 54062U 22136M   23345.49381444  .00000522  00000-0  50906-4 0  9998,2 54062  53.2189  61.6071 0001482  96.5774 263.5387 15.08841918 63650,6917.875,95.437,540.765,538.714,0.0
54062.0,STARLINK-5170,PAYLOAD,2023-12-12 11:41:52,15.08846077,0.0001461,53.2188,57.1466,91.9519,268.1641,8.934e-05,1.134e-05,0.0,0 STARLINK-5170,1 54062U 22136M   23346.48740912  .00001134  00000-0  89340-4 0  9991,2 54062  53.2188  57.1466 0001461  91.9519 268.1641 15.08846077 63329,6917.862,95.437,540.738,538.716,0.0
54062.0,STARLINK-5170,PAYLOAD,2023-12-13 11:32:38,15.0884901,0.0001473,53.2187,52.6855,97.2688,262.8471,6.7747e-05,7.91e-06,0.0,0 STARLINK-5170,1 54062U 22136M   23347.48100346  .00000791  00000-0  67747-4 0  9998,2 54062  53.2187  52.6855 0001473  97.2688 262.8471 15.08849010 63950,6917.853,95.437,540.737,538.699,0.0
54062.0,STARLINK-5170,PAYLOAD,2023-12-14 11:23:26,15.08835926,0.0001429,53.2184,48.2252,100.273,259.8424,-7.774e-05,-1.525e-05,0.0,0 STARLINK-5170,1 54062U 22136M   23348.47461778 -.00001525  00000-0 -77740-4 0  9999,2 54062  53.2184  48.2252 0001429 100.2730 259.8424 15.08835926 64106,6917.893,95.438,540.746,538.769,0.0
54062.0,STARLINK-5170,PAYLOAD,2023-12-15 11:14:15,15.08742853,0.0002092,53.2183,43.7641,106.6119,253.5103,0.0012006,0.00018821,0.0,0 STARLINK-5170,1 54062U 22136M   23349.46823583  .00018821  00000-0  12006-2 0  9992,2 54062  53.2183  43.7641 0002092 106.6119 253.5103 15.08742853 64252,6918.177,95.444,541.49,538.595,0.0
54062.0,STARLINK-5170,PAYLOAD,2023-12-16 11:05:01,15.08836281,0.0001439,53.2183,39.3016,82.897,277.2186,0.00012497,1.701e-05,0.0,0 STARLINK-5170,1 54062U 22136M   23350.46182260  .00001701  00000-0  12497-3 0  9998,2 54062  53.2183  39.3016 0001439  82.8970 277.2186 15.08836281 64403,6917.892,95.438,540.752,538.761,0.0
54062.0,STARLINK-5170,PAYLOAD,2023-12-17 10:55:48,15.08841139,0.0001906,53.2195,34.8435,65.754,294.3651,0.00012188,1.652e-05,0.0,0 STARLINK-5170,1 54062U 22136M   23351.45542585  .00001652  00000-0  12188-3 0  9990,2 54062  53.2195  34.8435 0001906  65.7540 294.3651 15.08841139 64071,6917.877,95.437,541.06,538.423,0.0
54062.0,STARLINK-5170,PAYLOAD,2023-12-18 09:11:11,15.08853283,0.0002139,53.2195,30.6813,61.605,298.5158,0.00016344,2.315e-05,0.0,0 STARLINK-5170,1 54062U 22136M   23352.38277620  .00002315  00000-0  16344-3 0  9993,2 54062  53.2195  30.6813 0002139  61.6050 298.5158 15.08853283 64694,6917.84,95.437,541.185,538.225,0.0
54062.0,STARLINK-5170,PAYLOAD,2023-12-19 09:01:59,15.0884028,0.0001434,53.2184,26.2241,105.1071,255.008,-2.9383e-05,-7.56e-06,0.0,0 STARLINK-5170,1 54062U 22136M   23353.37638697 -.00000756  00000-0 -29383-4 0  9995,2 54062  53.2184  26.2241 0001434 105.1071 255.0080 15.08840280 64844,6917.88,95.438,540.737,538.753,0.0
54062.0,STARLINK-5170,PAYLOAD,2023-12-20 07:17:22,15.08856841,0.0001529,53.2181,22.0539,99.9421,260.1743,8.2136e-05,1.02e-05,0.0,0 STARLINK-5170,1 54062U 22136M   23354.30373500  .00001020  00000-0  82136-4 0  9996,2 54062  53.2181  22.0539 0001529  99.9421 260.1743 15.08856841 64987,6917.829,95.436,540.752,538.636,0.0
54062.0,STARLINK-5170,PAYLOAD,2023-12-21 08:43:33,15.08844029,0.0001533,53.219,17.3023,111.5689,248.5467,0.00017709,2.532e-05,0.0,0 STARLINK-5170,1 54062U 22136M   23355.36358170  .00002532  00000-0  17709-3 0  9991,2 54062  53.2190  17.3023 0001533 111.5689 248.5467 15.08844029 65141,6917.868,95.437,540.794,538.673,0.0
54062.0,STARLINK-5170,PAYLOAD,2023-12-21 23:02:02,15.08845178,0.0001882,53.2192,14.6219,128.4301,231.686,-4.871e-05,-1.063e-05,0.0,0 STARLINK-5170,1 54062U 22136M   23355.95974894 -.00001063  00000-0 -48710-4 0  9990,2 54062  53.2192  14.6219 0001882 128.4301 231.6860 15.08845178 65231,6917.865,95.437,541.032,538.428,0.0
54062.0,STARLINK-5170,PAYLOAD,2023-12-22 06:58:58,15.08833233,0.0001465,53.2181,13.1369,95.5977,264.5183,-3.6128e-05,-8.63e-06,0.0,0 STARLINK-5170,1 54062U 22136M   23356.29095852 -.00000863  00000-0 -36128-4 0  9993,2 54062  53.2181  13.1369 0001465  95.5977 264.5183 15.08833233 65286,6917.901,95.438,540.78,538.753,0.0
54062.0,STARLINK-5170,PAYLOAD,2023-12-23 10:00:31,15.08850588,0.0001659,53.2182,8.0808,118.1679,241.948,7.5178e-05,9.09e-06,0.0,0 STARLINK-5170,1 54062U 22136M   23357.41702584  .00000909  00000-0  75178-4 0  9992,2 54062  53.2182   8.0808 0001659 118.1679 241.9480 15.08850588 65454,6917.848,95.437,540.861,538.565,0.0
54062.0,STARLINK-5170,PAYLOAD,2023-12-23 22:43:36,15.08835296,0.0001497,53.2179,5.7001,98.871,261.2451,0.00015671,2.207e-05,0.0,0 STARLINK-5170,1 54062U 22136M   23357.94695532  .00002207  00000-0  15671-3 0  9998,2 54062  53.2179   5.7001 0001497  98.8710 261.2451 15.08835296 65530,6917.895,95.438,540.795,538.724,0.0
54062.0,STARLINK-5170,PAYLOAD,2023-12-24 09:51:18,15.08842189,0.0001518,53.2172,3.6169,91.4428,268.6738,0.00020828,3.029e-05,0.0,0 STARLINK-5170,1 54062U 22136M   23358.41063299  .00003029  00000-0  20828-3 0  9993,2 54062  53.2172   3.6169 0001518  91.4428 268.6738 15.08842189 65127,6917.874,95.437,540.789,538.689,0.0
